{
 "generated_at": "2026-06-29T09:26:28Z",
 "sources": [
  {
   "name": "CelesTrak",
   "url": "https://celestrak.org/NORAD/elements/",
   "license": "frei verfügbar; Attribution. Ursprünglich USSPACECOM/Space-Track."
  },
  {
   "name": "GCAT (J. McDowell, planet4589.org)",
   "url": "https://planet4589.org/space/gcat/",
   "license": "CC-BY 4.0"
  }
 ],
 "satellites": [
  {
   "norad": 49070,
   "name": "PLEIADES NEO 4",
   "intl": "2021-073E",
   "group": "resource",
   "gcat": {
    "class": null,
    "category": "IMG",
    "owner": "ADSTI",
    "state": "F"
   },
   "omm": {
    "OBJECT_NAME": "PLEIADES NEO 4",
    "OBJECT_ID": "2021-073E",
    "EPOCH": "2026-06-28T23:16:49.703808",
    "MEAN_MOTION": 14.8167367,
    "ECCENTRICITY": 0.00013683,
    "INCLINATION": 97.8938,
    "RA_OF_ASC_NODE": 254.5631,
    "ARG_OF_PERICENTER": 90.1463,
    "MEAN_ANOMALY": 269.9907,
    "EPHEMERIS_TYPE": 0,
    "CLASSIFICATION_TYPE": "U",
    "NORAD_CAT_ID": 49070,
    "ELEMENT_SET_NO": 999,
    "REV_AT_EPOCH": 26311,
    "BSTAR": 0.00016370213,
    "MEAN_MOTION_DOT": 0.00001236,
    "MEAN_MOTION_DDOT": 0
   }
  },
  {
   "norad": 68835,
   "name": "PRSC-E03",
   "intl": "2026-092A",
   "group": "resource",
   "gcat": {
    "class": "C",
    "category": "IMG",
    "owner": "SUPA",
    "state": "PK"
   },
   "omm": {
    "OBJECT_NAME": "PRSC-E03",
    "OBJECT_ID": "2026-092A",
    "EPOCH": "2026-06-28T23:38:28.801248",
    "MEAN_MOTION": 15.06729705,
    "ECCENTRICITY": 0.00028346,
    "INCLINATION": 38.0023,
    "RA_OF_ASC_NODE": 20.1084,
    "ARG_OF_PERICENTER": 127.3157,
    "MEAN_ANOMALY": 232.7863,
    "EPHEMERIS_TYPE": 0,
    "CLASSIFICATION_TYPE": "U",
    "NORAD_CAT_ID": 68835,
    "ELEMENT_SET_NO": 999,
    "REV_AT_EPOCH": 973,
    "BSTAR": 0.00018791296,
    "MEAN_MOTION_DOT": 0.00002738,
    "MEAN_MOTION_DDOT": 0
   }
  },
  {
   "norad": 62725,
   "name": "PRSC-EO1",
   "intl": "2025-012A",
   "group": "resource",
   "gcat": {
    "class": "C",
    "category": "IMG",
    "owner": "JHQJ/YINHE",
    "state": "CN"
   },
   "omm": {
    "OBJECT_NAME": "PRSC-EO1",
    "OBJECT_ID": "2025-012A",
    "EPOCH": "2026-06-28T23:50:43.209024",
    "MEAN_MOTION": 15.17754577,
    "ECCENTRICITY": 0.00057708,
    "INCLINATION": 97.4229,
    "RA_OF_ASC_NODE": 252.2226,
    "ARG_OF_PERICENTER": 203.3736,
    "MEAN_ANOMALY": 156.7236,
    "EPHEMERIS_TYPE": 0,
    "CLASSIFICATION_TYPE": "U",
    "NORAD_CAT_ID": 62725,
    "ELEMENT_SET_NO": 999,
    "REV_AT_EPOCH": 7998,
    "BSTAR": 0.00031498762,
    "MEAN_MOTION_DOT": 0.00006296,
    "MEAN_MOTION_DDOT": 0
   }
  },
  {
   "norad": 65055,
   "name": "PRSC-S1",
   "intl": "2025-164A",
   "group": "resource",
   "gcat": {
    "class": "C",
    "category": "IMG-R",
    "owner": "SUPA",
    "state": "PK"
   },
   "omm": {
    "OBJECT_NAME": "PRSC-S1",
    "OBJECT_ID": "2025-164A",
    "EPOCH": "2026-06-28T19:11:01.426848",
    "MEAN_MOTION": 15.06540368,
    "ECCENTRICITY": 0.00050827,
    "INCLINATION": 41.1291,
    "RA_OF_ASC_NODE": 222.4089,
    "ARG_OF_PERICENTER": 70.1885,
    "MEAN_ANOMALY": 289.9477,
    "EPHEMERIS_TYPE": 0,
    "CLASSIFICATION_TYPE": "U",
    "NORAD_CAT_ID": 65055,
    "ELEMENT_SET_NO": 999,
    "REV_AT_EPOCH": 5018,
    "BSTAR": 0.0002109443,
    "MEAN_MOTION_DOT": 0.00002998,
    "MEAN_MOTION_DDOT": 0
   }
  },
  {
   "norad": 64055,
   "name": "QPS-SAR-10 (WADATSUMI-I)",
   "intl": "2025-104A",
   "group": "sar",
   "gcat": {
    "class": "B",
    "category": "IMG-R",
    "owner": "QPS",
    "state": "J"
   },
   "omm": {
    "OBJECT_NAME": "QPS-SAR-10 (WADATSUMI-I)",
    "OBJECT_ID": "2025-104A",
    "EPOCH": "2026-06-28T23:02:36.757824",
    "MEAN_MOTION": 15.01862409,
    "ECCENTRICITY": 0.00117533,
    "INCLINATION": 42.0022,
    "RA_OF_ASC_NODE": 214.044,
    "ARG_OF_PERICENTER": 52.0507,
    "MEAN_ANOMALY": 308.138,
    "EPHEMERIS_TYPE": 0,
    "CLASSIFICATION_TYPE": "U",
    "NORAD_CAT_ID": 64055,
    "ELEMENT_SET_NO": 999,
    "REV_AT_EPOCH": 6120,
    "BSTAR": 0.00027313674,
    "MEAN_MOTION_DOT": 0.00003444,
    "MEAN_MOTION_DDOT": 0
   }
  },
  {
   "norad": 64340,
   "name": "QPS-SAR-11 (YAMATSUMI-I)",
   "intl": "2025-125A",
   "group": "sar",
   "gcat": {
    "class": "B",
    "category": "IMG-R",
    "owner": "QPS",
    "state": "J"
   },
   "omm": {
    "OBJECT_NAME": "QPS-SAR-11 (YAMATSUMI-I)",
    "OBJECT_ID": "2025-125A",
    "EPOCH": "2026-06-28T21:32:12.412896",
    "MEAN_MOTION": 15.01701717,
    "ECCENTRICITY": 0.00106354,
    "INCLINATION": 42.0069,
    "RA_OF_ASC_NODE": 127.2021,
    "ARG_OF_PERICENTER": 210.1435,
    "MEAN_ANOMALY": 149.878,
    "EPHEMERIS_TYPE": 0,
    "CLASSIFICATION_TYPE": "U",
    "NORAD_CAT_ID": 64340,
    "ELEMENT_SET_NO": 999,
    "REV_AT_EPOCH": 5738,
    "BSTAR": 0.0003452876,
    "MEAN_MOTION_DOT": 0.00004385,
    "MEAN_MOTION_DDOT": 0
   }
  },
  {
   "norad": 65116,
   "name": "QPS-SAR-12 (KUSHINADA-I)",
   "intl": "2025-169A",
   "group": "sar",
   "gcat": {
    "class": "B",
    "category": "IMG-R",
    "owner": "QPS",
    "state": "J"
   },
   "omm": {
    "OBJECT_NAME": "QPS-SAR-12 (KUSHINADA-I)",
    "OBJECT_ID": "2025-169A",
    "EPOCH": "2026-06-28T19:37:06.439296",
    "MEAN_MOTION": 15.00949107,
    "ECCENTRICITY": 0.00086683,
    "INCLINATION": 42.0125,
    "RA_OF_ASC_NODE": 311.9343,
    "ARG_OF_PERICENTER": 288.3984,
    "MEAN_ANOMALY": 71.59,
    "EPHEMERIS_TYPE": 0,
    "CLASSIFICATION_TYPE": "U",
    "NORAD_CAT_ID": 65116,
    "ELEMENT_SET_NO": 999,
    "REV_AT_EPOCH": 4916,
    "BSTAR": 0.00034690692,
    "MEAN_MOTION_DOT": 0.00004316,
    "MEAN_MOTION_DDOT": 0
   }
  },
  {
   "norad": 66316,
   "name": "QPS-SAR-14 (YACHIHOKO-I)",
   "intl": "2025-252A",
   "group": "sar",
   "gcat": {
    "class": "B",
    "category": "IMG-R",
    "owner": "QPS",
    "state": "J"
   },
   "omm": {
    "OBJECT_NAME": "QPS-SAR-14 (YACHIHOKO-I)",
    "OBJECT_ID": "2025-252A",
    "EPOCH": "2026-06-28T23:35:20.917536",
    "MEAN_MOTION": 14.99775953,
    "ECCENTRICITY": 0.00067112,
    "INCLINATION": 42.0037,
    "RA_OF_ASC_NODE": 66.9682,
    "ARG_OF_PERICENTER": 322.4696,
    "MEAN_ANOMALY": 37.5661,
    "EPHEMERIS_TYPE": 0,
    "CLASSIFICATION_TYPE": "U",
    "NORAD_CAT_ID": 66316,
    "ELEMENT_SET_NO": 999,
    "REV_AT_EPOCH": 3528,
    "BSTAR": 0.00031985,
    "MEAN_MOTION_DOT": 0.0000384,
    "MEAN_MOTION_DDOT": 0
   }
  },
  {
   "norad": 67228,
   "name": "QPS-SAR-15 (SUKUNAMI-I)",
   "intl": "2025-307A",
   "group": "sar",
   "gcat": {
    "class": "B",
    "category": "IMG-R",
    "owner": "QPS",
    "state": "J"
   },
   "omm": {
    "OBJECT_NAME": "QPS-SAR-15 (SUKUNAMI-I)",
    "OBJECT_ID": "2025-307A",
    "EPOCH": "2026-06-28T23:11:04.363872",
    "MEAN_MOTION": 14.99072445,
    "ECCENTRICITY": 0.00088699,
    "INCLINATION": 42.0044,
    "RA_OF_ASC_NODE": 163.2111,
    "ARG_OF_PERICENTER": 69.9331,
    "MEAN_ANOMALY": 290.2449,
    "EPHEMERIS_TYPE": 0,
    "CLASSIFICATION_TYPE": "U",
    "NORAD_CAT_ID": 67228,
    "ELEMENT_SET_NO": 999,
    "REV_AT_EPOCH": 2845,
    "BSTAR": 0.00032462958,
    "MEAN_MOTION_DOT": 0.00003827,
    "MEAN_MOTION_DDOT": 0
   }
  },
  {
   "norad": 58578,
   "name": "QPS-SAR-5 (TSUKUYOMI-I)",
   "intl": "2023-196A",
   "group": "sar",
   "gcat": {
    "class": "B",
    "category": "IMG-R",
    "owner": "QPS",
    "state": "J"
   },
   "omm": {
    "OBJECT_NAME": "QPS-SAR-5 (TSUKUYOMI-I)",
    "OBJECT_ID": "2023-196A",
    "EPOCH": "2026-06-28T20:18:52.072992",
    "MEAN_MOTION": 15.22855545,
    "ECCENTRICITY": 0.00263151,
    "INCLINATION": 42.0117,
    "RA_OF_ASC_NODE": 309.4874,
    "ARG_OF_PERICENTER": 356.6743,
    "MEAN_ANOMALY": 3.3912,
    "EPHEMERIS_TYPE": 0,
    "CLASSIFICATION_TYPE": "U",
    "NORAD_CAT_ID": 58578,
    "ELEMENT_SET_NO": 999,
    "REV_AT_EPOCH": 14002,
    "BSTAR": 0.00050333133,
    "MEAN_MOTION_DOT": 0.0001192,
    "MEAN_MOTION_DDOT": 0
   }
  }
 ]
}
