PLEIADES NEO 4          
1 49070U 21073E   26179.97001972  .00001236  00000+0  16370-3 0  9994
2 49070  97.8938 254.5631 0001368  90.1463 269.9907 14.81673670263111
QPS-SAR-5 (TSUKUYOMI-I) 
1 58578U 23196A   26179.84643603  .00011920  00000+0  50333-3 0  9992
2 58578  42.0117 309.4874 0026315 356.6743   3.3912 15.22855545140023
PRSC-EO1                
1 62725U 25012A   26179.99355566  .00006296  00000+0  31499-3 0  9996
2 62725  97.4229 252.2226 0005770 203.3736 156.7236 15.17754577 79983
QPS-SAR-10 (WADATSUMI-I)
1 64055U 25104A   26179.96014766  .00003444  00000+0  27314-3 0  9990
2 64055  42.0022 214.0440 0011753  52.0507 308.1380 15.01862409 61201
QPS-SAR-11 (YAMATSUMI-I)
1 64340U 25125A   26179.89736589  .00004385  00000+0  34529-3 0  9997
2 64340  42.0069 127.2021 0010635 210.1435 149.8780 15.01701717 57386
PRSC-S1                 
1 65055U 25164A   26179.79932207  .00002998  00000+0  21094-3 0  9999
2 65055  41.1291 222.4089 0005082  70.1885 289.9477 15.06540368 50180
QPS-SAR-12 (KUSHINADA-I)
1 65116U 25169A   26179.81743564  .00004316  00000+0  34691-3 0  9994
2 65116  42.0125 311.9343 0008668 288.3984  71.5900 15.00949107 49167
QPS-SAR-14 (YACHIHOKO-I)
1 66316U 25252A   26179.98288099  .00003840  00000+0  31985-3 0  9999
2 66316  42.0037  66.9682 0006711 322.4696  37.5661 14.99775953 35289
QPS-SAR-15 (SUKUNAMI-I) 
1 67228U 25307A   26179.96602273  .00003827  00000+0  32463-3 0  9992
2 67228  42.0044 163.2111 0008869  69.9331 290.2449 14.99072445 28452
PRSC-E03                
1 68835U 26092A   26179.98505557  .00002738  00000+0  18791-3 0  9996
2 68835  38.0023  20.1084 0002834 127.3157 232.7863 15.06729705  9738
